IRIDIUM 921             
1 24873U 97034E   24302.34151588  .00139727  00000+0  19374-2 0  9997
2 24873  86.3773 221.4803 0009269  87.5080 272.7244 15.56543042495757
IRIDIUM 26              
1 24903U 97043A   24302.44176037  .00001892  00000+0  63551-3 0  9996
2 24903  86.4019 207.8458 0002352  85.9155 274.2311 14.36732516423464
IRIDIUM 22              
1 24907U 97043E   24302.46203695  .00001668  00000+0  57263-3 0  9997
2 24907  86.4020 211.1756 0002240  81.1001 279.0449 14.35591180423524
DUMMY MASS 1            
1 24925U 97048A   24302.55889469  .00001938  00000+0  21584-3 0  9998
2 24925  86.3350 242.3224 0004439 236.9288 123.1510 14.86551624470710
DUMMY MASS 2            
1 24926U 97048B   24302.54998051  .00001939  00000+0  21730-3 0  9990
2 24926  86.3346 243.8926 0005043 255.0512 105.0155 14.86306999470497
IRIDIUM 29              
1 24944U 97051A   24302.56261121  .00001822  00000+0  62021-3 0  9996
2 24944  86.3962 240.9500 0002163  80.6547 279.4894 14.36041556420027
IRIDIUM 33              
1 24946U 97051C   24302.57851298  .00001415  00000+0  49403-3 0  9996
2 24946  86.3878 240.1902 0009949 107.8370 252.3912 14.34600333419535
IRIDIUM 28              
1 24948U 97051E   24302.54771272  .00001900  00000+0  63505-3 0  9996
2 24948  86.3972 238.6033 0002694  90.2528 269.8978 14.36989985420575
